NORAD_CAT_ID,OBJECT_NAME,OBJECT_TYPE,EPOCH,MEAN_MOTION,ECCENTRICITY,INCLINATION,RA_OF_ASC_NODE,ARG_OF_PERICENTER,MEAN_ANOMALY,BSTAR,MEAN_MOTION_DOT,MEAN_MOTION_DDOT,TLE_LINE0,TLE_LINE1,TLE_LINE2,SEMIMAJOR_AXIS,PERIOD,APOGEE,PERIGEE,DECAYED
55652.0,STARLINK-5487,PAYLOAD,2023-11-19 12:26:19,14.98329749,0.0002969,69.9986,145.2868,271.8204,88.2615,-5.1319e-06,-1.54e-06,0.0,0 STARLINK-5487,1 55652U 23021AA  23323.51827904 -.00000154  00000-0 -51319-5 0  9996,2 55652  69.9986 145.2868 0002969 271.8204  88.2615 14.98329749 42491,6950.194,96.107,574.122,569.995,0.0
55652.0,STARLINK-5487,PAYLOAD,2023-11-19 14:02:27,14.98330425,0.0002967,69.9988,145.1185,271.7415,88.3404,2.8695e-06,-5.9e-07,0.0,0 STARLINK-5487,1 55652U 23021AA  23323.58503835 -.00000059  00000-0  28695-5 0  9991,2 55652  69.9988 145.1185 0002967 271.7415  88.3404 14.98330425 42800,6950.192,96.107,574.119,569.994,0.0
55652.0,STARLINK-5487,PAYLOAD,2023-11-19 22:03:07,14.98330577,0.0002956,69.9987,144.2766,271.5283,88.5537,-9.3684e-06,-2.05e-06,0.0,0 STARLINK-5487,1 55652U 23021AA  23323.91883829 -.00000205  00000-0 -93684-5 0  9996,2 55652  69.9987 144.2766 0002956 271.5283  88.5537 14.98330577 42855,6950.191,96.107,574.111,570.002,0.0
55652.0,STARLINK-5487,PAYLOAD,2023-11-20 14:04:28,14.98331626,0.0002958,69.9987,142.5934,271.6405,88.4415,8.3017e-06,6e-08,0.0,0 STARLINK-5487,1 55652U 23021AA  23324.58643670  .00000006  00000-0  83017-5 0  9994,2 55652  69.9987 142.5934 0002958 271.6405  88.4415 14.98331626 42953,6950.188,96.107,574.109,569.997,0.0
55652.0,STARLINK-5487,PAYLOAD,2023-11-20 18:52:52,14.98332673,0.0002961,69.9988,142.0885,271.6509,88.4311,1.0067e-05,2.7e-07,0.0,0 STARLINK-5487,1 55652U 23021AA  23324.78671571  .00000027  00000-0  10067-4 0  9994,2 55652  69.9988 142.0885 0002961 271.6509  88.4311 14.98332673 42681,6950.185,96.107,574.108,569.992,0.0
55652.0,STARLINK-5487,PAYLOAD,2023-11-20 22:05:08,14.98332551,0.0002965,69.9988,141.7519,271.8008,88.2812,8.9355e-06,1.4e-07,0.0,0 STARLINK-5487,1 55652U 23021AA  23324.92023559  .00000014  00000-0  89355-5 0  9990,2 55652  69.9988 141.7519 0002965 271.8008  88.2812 14.98332551 43007,6950.185,96.107,574.111,569.989,0.0
55652.0,STARLINK-5487,PAYLOAD,2023-11-21 12:30:21,14.98328428,0.0002931,69.9989,140.237,271.9165,88.1658,-2.0387e-05,-3.36e-06,0.0,0 STARLINK-5487,1 55652U 23021AA  23325.52107903 -.00000336  00000-0 -20387-4 0  9991,2 55652  69.9989 140.2370 0002931 271.9165  88.1658 14.98328428 43099,6950.198,96.107,574.1,570.026,0.0
55652.0,STARLINK-5487,PAYLOAD,2023-11-21 20:31:01,14.98328769,0.0002927,69.9988,139.3953,271.977,88.1054,-1.1651e-05,-2.32e-06,0.0,0 STARLINK-5487,1 55652U 23021AA  23325.85487877 -.00000232  00000-0 -11651-4 0  9997,2 55652  69.9988 139.3953 0002927 271.9770  88.1054 14.98328769 43145,6950.197,96.107,574.096,570.027,0.0
55652.0,STARLINK-5487,PAYLOAD,2023-11-21 22:07:09,14.98329044,0.0002927,69.9988,139.227,272.0175,88.0649,-8.4434e-06,-1.94e-06,0.0,0 STARLINK-5487,1 55652U 23021AA  23325.92163854 -.00000194  00000-0 -84434-5 0  9998,2 55652  69.9988 139.2270 0002927 272.0175  88.0649 14.98329044 42850,6950.196,96.107,574.095,570.027,0.0
55652.0,STARLINK-5487,PAYLOAD,2023-11-22 14:08:29,14.98334322,0.0002923,69.9989,137.5439,271.8699,88.2125,1.8706e-05,1.3e-06,0.0,0 STARLINK-5487,1 55652U 23021AA  23326.58923383  .00000130  00000-0  18706-4 0  9998,2 55652  69.9989 137.5439 0002923 271.8699  88.2125 14.98334322 43254,6950.18,96.107,574.076,570.013,0.0
55652.0,STARLINK-5487,PAYLOAD,2023-11-22 20:33:02,14.98333752,0.0002701,69.9989,136.8689,273.7929,86.2922,4.2621e-05,4.16e-06,0.0,0 STARLINK-5487,1 55652U 23021AA  23326.85627318  .00000416  00000-0  42621-4 0  9997,2 55652  69.9989 136.8689 0002701 273.7929  86.2922 14.98333752 43297,6950.181,96.107,573.924,570.169,0.0
55652.0,STARLINK-5487,PAYLOAD,2023-11-23 14:10:31,14.98325983,0.0003065,69.9985,135.0184,272.5961,87.4847,-2.7949e-05,-4.26e-06,0.0,0 STARLINK-5487,1 55652U 23021AA  23327.59063939 -.00000426  00000-0 -27949-4 0  9991,2 55652  69.9985 135.0184 0003065 272.5961  87.4847 14.98325983 43400,6950.205,96.107,574.201,569.94,0.0
55652.0,STARLINK-5487,PAYLOAD,2023-11-23 18:58:55,14.9832293,0.0002636,69.9994,134.5145,262.1348,97.9512,-4.668e-05,-6.5e-06,0.0,0 STARLINK-5487,1 55652U 23021AA  23327.79092195 -.00000650  00000-0 -46680-4 0  9991,2 55652  69.9994 134.5145 0002636 262.1348  97.9512 14.98322930 43132,6950.215,96.107,573.912,570.248,0.0
55652.0,STARLINK-5487,PAYLOAD,2023-11-23 20:35:03,14.98322484,0.0002697,69.9994,134.3462,264.5579,95.5272,-4.6667e-05,-6.5e-06,0.0,0 STARLINK-5487,1 55652U 23021AA  23327.85768258 -.00000650  00000-0 -46667-4 0  9993,2 55652  69.9994 134.3462 0002697 264.5579  95.5272 14.98322484 43446,6950.216,96.107,573.956,570.207,0.0
55652.0,STARLINK-5487,PAYLOAD,2023-11-24 11:00:16,14.98331903,0.0003022,69.9985,132.8302,268.5808,91.5005,-8.3237e-05,-1.086e-05,0.0,0 STARLINK-5487,1 55652U 23021AA  23328.45851861 -.00001086  00000-0 -83237-4 0  9991,2 55652  69.9985 132.8302 0003022 268.5808  91.5005 14.98331903 43237,6950.187,96.107,574.152,569.952,0.0
55652.0,STARLINK-5487,PAYLOAD,2023-11-24 14:12:31,14.98332211,0.0002896,69.999,132.4943,266.2268,93.856,-3.7433e-05,-5.4e-06,0.0,0 STARLINK-5487,1 55652U 23021AA  23328.59203675 -.00000540  00000-0 -37433-4 0  9991,2 55652  69.9990 132.4943 0002896 266.2268  93.8560 14.98332211 43552,6950.186,96.107,574.064,570.038,0.0
55652.0,STARLINK-5487,PAYLOAD,2023-11-24 20:37:04,14.98332577,0.0002869,69.9992,131.8214,265.8695,94.2137,-2.6582e-05,-4.1e-06,0.0,0 STARLINK-5487,1 55652U 23021AA  23328.85907590 -.00000410  00000-0 -26582-4 0  9996,2 55652  69.9992 131.8214 0002869 265.8695  94.2137 14.98332577 43591,6950.185,96.107,574.044,570.056,0.0
55652.0,STARLINK-5487,PAYLOAD,2023-11-25 14:14:32,14.98327342,0.0002925,69.9992,129.9697,266.0036,94.0789,6.6208e-05,6.97e-06,0.0,0 STARLINK-5487,1 55652U 23021AA  23329.59343644  .00000697  00000-0  66208-4 0  9996,2 55652  69.9992 129.9697 0002925 266.0036  94.0789 14.98327342 43707,6950.201,96.107,574.099,570.033,0.0
55652.0,STARLINK-5487,PAYLOAD,2023-11-25 20:39:05,14.98329854,0.0002978,69.9991,129.2962,269.3348,90.747,8.3301e-05,9.01e-06,0.0,0 STARLINK-5487,1 55652U 23021AA  23329.86047470  .00000901  00000-0  83301-4 0  9995,2 55652  69.9991 129.2962 0002978 269.3348  90.7470 14.98329854 43748,6950.193,96.107,574.128,569.989,0.0
55652.0,STARLINK-5487,PAYLOAD,2023-11-26 11:04:17,14.98335854,0.0003001,69.9992,127.7814,270.9957,89.0858,4.2459e-05,4.14e-06,0.0,0 STARLINK-5487,1 55652U 23021AA  23330.46131104  .00000414  00000-0  42459-4 0  9999,2 55652  69.9992 127.7814 0003001 270.9957  89.0858 14.98335854 43535,6950.175,96.107,574.126,569.954,0.0
55652.0,STARLINK-5487,PAYLOAD,2023-11-26 14:16:33,14.98335453,0.0003013,69.9992,127.4448,270.9411,89.1403,3.5898e-05,3.35e-06,0.0,0 STARLINK-5487,1 55652U 23021AA  23330.59483090  .00000335  00000-0  35898-4 0  9998,2 55652  69.9992 127.4448 0003013 270.9411  89.1403 14.98335453 43850,6950.176,96.107,574.135,569.947,0.0
55652.0,STARLINK-5487,PAYLOAD,2023-11-26 20:41:05,14.98336395,0.0003001,69.9993,126.7719,270.6308,89.4507,4.3757e-05,4.29e-06,0.0,0 STARLINK-5487,1 55652U 23021AA  23330.86186901  .00000429  00000-0  43757-4 0  9996,2 55652  69.9993 126.7719 0003001 270.6308  89.4507 14.98336395 43891,6950.173,96.107,574.124,569.952,0.0
55652.0,STARLINK-5487,PAYLOAD,2023-11-27 11:06:18,14.98334081,0.0002499,69.9993,125.2571,254.4167,105.6717,-0.00021325,-2.637e-05,0.0,0 STARLINK-5487,1 55652U 23021AA  23331.46271752 -.00002637  00000-0 -21325-3 0  9993,2 55652  69.9993 125.2571 0002499 254.4167 105.6717 14.98334081 43685,6950.18,96.107,573.782,570.308,0.0
55652.0,STARLINK-5487,PAYLOAD,2023-11-27 14:18:34,14.98325297,0.0002638,69.9994,124.9204,257.9743,102.1121,-5.5911e-05,-7.6e-06,0.0,0 STARLINK-5487,1 55652U 23021AA  23331.59623784 -.00000760  00000-0 -55911-4 0  9997,2 55652  69.9994 124.9204 0002638 257.9743 102.1121 14.98325297 44005,6950.207,96.107,573.906,570.239,0.0
55652.0,STARLINK-5487,PAYLOAD,2023-11-27 20:43:06,14.98329128,0.0002964,69.9997,124.2472,265.3391,94.743,-3.1088e-05,-4.64e-06,0.0,0 STARLINK-5487,1 55652U 23021AA  23331.86327509 -.00000464  00000-0 -31088-4 0  9993,2 55652  69.9997 124.2472 0002964 265.3391  94.7430 14.98329128 44042,6950.196,96.107,574.121,570.001,0.0
55652.0,STARLINK-5487,PAYLOAD,2023-11-28 11:08:19,14.98330551,0.0003126,69.9993,122.732,270.5295,89.5505,-4.5044e-05,-6.3e-06,0.0,0 STARLINK-5487,1 55652U 23021AA  23332.46411406 -.00000630  00000-0 -45044-4 0  9992,2 55652  69.9993 122.7320 0003126 270.5295  89.5505 14.98330551 43838,6950.191,96.107,574.229,569.884,0.0
55652.0,STARLINK-5487,PAYLOAD,2023-11-28 14:20:35,14.98331213,0.000291,69.9997,122.3956,264.8865,95.1962,-2.3608e-05,-3.75e-06,0.0,0 STARLINK-5487,1 55652U 23021AA  23332.59763283 -.00000375  00000-0 -23608-4 0  9997,2 55652  69.9997 122.3956 0002910 264.8865  95.1962 14.98331213 44154,6950.189,96.107,574.077,570.032,0.0
55652.0,STARLINK-5487,PAYLOAD,2023-11-28 19:08:59,14.98335224,0.0002766,69.9998,121.8907,258.9152,101.1696,1.8285e-05,1.25e-06,0.0,0 STARLINK-5487,1 55652U 23021AA  23332.79790865  .00000125  00000-0  18285-4 0  9991,2 55652  69.9998 121.8907 0002766 258.9152 101.1696 14.98335224 43884,6950.177,96.107,573.964,570.119,0.0
55652.0,STARLINK-5487,PAYLOAD,2023-11-29 12:46:28,14.98326756,0.000296,69.9995,120.0384,265.1455,94.9366,5.6491e-05,5.81e-06,0.0,0 STARLINK-5487,1 55652U 23021AA  23333.53227227  .00000581  00000-0  56491-4 0  9998,2 55652  69.9995 120.0384 0002960 265.1455  94.9366 14.98326756 43998,6950.203,96.107,574.125,570.011,0.0
55652.0,STARLINK-5487,PAYLOAD,2023-11-29 14:22:36,14.98326768,0.0002892,70.0,119.8706,262.5562,97.5268,6.0884e-05,6.33e-06,0.0,0 STARLINK-5487,1 55652U 23021AA  23333.59903212  .00000633  00000-0  60884-4 0  9998,2 55652  70.0000 119.8706 0002892 262.5562  97.5268 14.98326768 44305,6950.203,96.107,574.078,570.058,0.0
